ORBCOMM FM33            
1 25983U 99065D   24267.91142801  .00003374  00000+0  11415-2 0  9993
2 25983  45.0275 183.5903 0007441 159.1356 200.9797 14.38411382297701
ORBCOMM FM36            
1 25984U 99065E   24268.14818756  .00002790  00000+0  99168-3 0  9992
2 25984  45.0383 270.2672 0003572   2.1597 357.9266 14.36403928296735
ORBCOMM FM35            
1 25985U 99065F   24267.75212249  .00002142  00000+0  78234-3 0  9996
2 25985  45.0393 275.3268 0001891 181.1726 178.9118 14.35761067296476
ORBCOMM FM34            
1 25986U 99065G   24267.72442057  .00002413  00000+0  87534-3 0  9990
2 25986  45.0386 276.0069 0001832  57.2591 302.8433 14.35762267296587
ORBCOMM FM38            
1 33060U 08031A   24267.91942205  .00005798  00000+0  80856-3 0  9995
2 33060  48.4393 142.0491 0005011 331.5414  28.5226 14.78753814875300
ORBCOMM FM41            
1 33061U 08031B   24267.72815191  .00004690  00000+0  66421-3 0  9990
2 33061  48.4427 149.9060 0004332 315.1267  85.6646 14.78456193874776
ORBCOMM FM29            
1 33062U 08031C   24267.92840836  .00005891  00000+0  82707-3 0  9996
2 33062  48.4382 156.9815 0006090 316.9725 108.0375 14.78435450874710
ORBCOMM FM39            
1 33063U 08031D   24267.91235993  .00005435  00000+0  78597-3 0  9994
2 33063  48.4396 178.6730 0007243 293.0585  66.9565 14.77289146874398
